NORAD_CAT_ID,OBJECT_NAME,OBJECT_TYPE,EPOCH,MEAN_MOTION,ECCENTRICITY,INCLINATION,RA_OF_ASC_NODE,ARG_OF_PERICENTER,MEAN_ANOMALY,BSTAR,MEAN_MOTION_DOT,MEAN_MOTION_DDOT,TLE_LINE0,TLE_LINE1,TLE_LINE2,SEMIMAJOR_AXIS,PERIOD,APOGEE,PERIGEE,DECAYED
52275.0,STARLINK-3784,PAYLOAD,2023-08-29 10:16:50,15.08843339,0.0001336,53.2175,293.8038,87.7267,272.3878,2.1581e-05,5.6e-07,0.0,0 STARLINK-3784,1 52275U 22041Q   23241.42836366  .00000056  00000-0  21581-4 0  9992,2 52275  53.2175 293.8038 0001336  87.7267 272.3878 15.08843339 74988,6917.87,95.437,540.659,538.811,0.0
52275.0,STARLINK-3784,PAYLOAD,2023-08-30 08:32:15,15.0883392,0.0001334,53.2173,289.6402,87.4122,272.7023,2.5573e-05,1.19e-06,0.0,0 STARLINK-3784,1 52275U 22041Q   23242.35573061  .00000119  00000-0  25573-4 0  9990,2 52275  53.2173 289.6402 0001334  87.4122 272.7023 15.08833920 76331,6917.899,95.438,540.687,538.841,0.0
52275.0,STARLINK-3784,PAYLOAD,2023-08-30 19:39:56,15.08835864,0.0001175,53.2174,287.5582,91.1814,268.9313,1.162e-05,-1.03e-06,0.0,0 STARLINK-3784,1 52275U 22041Q   23242.81940941 -.00000103  00000-0  11620-4 0  9998,2 52275  53.2174 287.5582 0001175  91.1814 268.9313 15.08835864 75192,6917.893,95.438,540.571,538.945,0.0
52275.0,STARLINK-3784,PAYLOAD,2023-08-31 03:36:52,15.08834536,0.0001292,53.2171,286.0717,90.8224,269.2916,3.7634e-06,-2.28e-06,0.0,0 STARLINK-3784,1 52275U 22041Q   23243.15061287 -.00000228  00000-0  37634-5 0  9995,2 52275  53.2171 286.0717 0001292  90.8224 269.2916 15.08834536 75248,6917.897,95.438,540.656,538.868,0.0
52275.0,STARLINK-3784,PAYLOAD,2023-09-01 09:49:12,15.08838187,0.0001308,53.2163,280.4216,91.5561,268.5581,3.5916e-05,2.84e-06,0.0,0 STARLINK-3784,1 52275U 22041Q   23244.40917278  .00000284  00000-0  35916-4 0  9995,2 52275  53.2163 280.4216 0001308  91.5561 268.5581 15.08838187 76642,6917.886,95.438,540.656,538.846,0.0
52275.0,STARLINK-3784,PAYLOAD,2023-09-01 12:59:58,15.08842616,0.000126,53.2166,279.8273,91.8972,268.2164,7.1898e-05,8.57e-06,0.0,0 STARLINK-3784,1 52275U 22041Q   23244.54164847  .00000857  00000-0  71898-4 0  9991,2 52275  53.2166 279.8273 0001260  91.8972 268.2164 15.08842616 75450,6917.872,95.437,540.609,538.866,0.0
52275.0,STARLINK-3784,PAYLOAD,2023-09-01 19:21:31,15.08840374,0.0001314,53.2164,278.6375,89.3451,270.7691,4.9235e-05,4.96e-06,0.0,0 STARLINK-3784,1 52275U 22041Q   23244.80661064  .00000496  00000-0  49235-4 0  9992,2 52275  53.2164 278.6375 0001314  89.3451 270.7691 15.08840374 75498,6917.879,95.438,540.653,538.835,0.0
52275.0,STARLINK-3784,PAYLOAD,2023-09-02 03:18:27,15.08842141,0.0001342,53.2195,277.1515,90.2182,269.8964,2.0467e-05,3.8e-07,0.0,0 STARLINK-3784,1 52275U 22041Q   23245.13781322  .00000038  00000-0  20467-4 0  9997,2 52275  53.2195 277.1515 0001342  90.2182 269.8964 15.08842141 75547,6917.874,95.437,540.667,538.81,0.0
52275.0,STARLINK-3784,PAYLOAD,2023-09-02 19:12:18,15.08844637,0.0001385,53.2183,274.1776,88.4831,271.632,3.8104e-05,3.19e-06,0.0,0 STARLINK-3784,1 52275U 22041Q   23245.80021007  .00000319  00000-0  38104-4 0  9997,2 52275  53.2183 274.1776 0001385  88.4831 271.6320 15.08844637 75647,6917.866,95.437,540.689,538.773,0.0
52275.0,STARLINK-3784,PAYLOAD,2023-09-03 01:33:50,15.08840688,0.0001434,53.218,272.9885,90.7205,269.3951,2.2055e-05,6.3e-07,0.0,0 STARLINK-3784,1 52275U 22041Q   23246.06517223  .00000063  00000-0  22055-4 0  9990,2 52275  53.2180 272.9885 0001434  90.7205 269.3951 15.08840688 76891,6917.878,95.438,540.735,538.751,0.0
52275.0,STARLINK-3784,PAYLOAD,2023-09-03 09:30:46,15.08843295,0.0001401,53.2168,271.5014,91.3358,268.7795,2.5829e-05,1.23e-06,0.0,0 STARLINK-3784,1 52275U 22041Q   23246.39637037  .00000123  00000-0  25829-4 0  9991,2 52275  53.2168 271.5014 0001401  91.3358 268.7795 15.08843295 75734,6917.87,95.437,540.705,538.766,0.0
52275.0,STARLINK-3784,PAYLOAD,2023-09-03 19:03:05,15.08831284,0.0001245,53.2165,269.717,86.5128,273.6006,-5.0003e-05,-1.083e-05,0.0,0 STARLINK-3784,1 52275U 22041Q   23246.79381913 -.00001083  00000-0 -50003-4 0  9994,2 52275  53.2165 269.7170 0001245  86.5128 273.6006 15.08831284 77007,6917.907,95.438,540.633,538.911,0.0
52275.0,STARLINK-3784,PAYLOAD,2023-09-04 10:56:57,15.08834079,0.0001574,53.2162,266.7419,88.829,271.2883,-3.0814e-06,-3.37e-06,0.0,0 STARLINK-3784,1 52275U 22041Q   23247.45621949 -.00000337  00000-0 -30814-5 0  9994,2 52275  53.2162 266.7419 0001574  88.8290 271.2883 15.08834079 75894,6917.898,95.438,540.852,538.675,0.0
52275.0,STARLINK-3784,PAYLOAD,2023-09-04 18:53:52,15.08836118,0.0001405,53.2163,265.2559,87.6621,272.4532,4.7272e-05,4.64e-06,0.0,0 STARLINK-3784,1 52275U 22041Q   23247.78741681  .00000464  00000-0  47272-4 0  9990,2 52275  53.2163 265.2559 0001405  87.6621 272.4532 15.08836118 77153,6917.892,95.438,540.729,538.785,0.0
52275.0,STARLINK-3784,PAYLOAD,2023-09-05 12:23:06,15.08845868,0.0001437,53.2164,261.9839,89.4609,270.6548,7.1843e-05,8.56e-06,0.0,0 STARLINK-3784,1 52275U 22041Q   23248.51605023  .00000856  00000-0  71843-4 0  9997,2 52275  53.2164 261.9839 0001437  89.4609 270.6548 15.08845868 76056,6917.862,95.437,540.722,538.733,0.0
52275.0,STARLINK-3784,PAYLOAD,2023-09-06 10:38:30,15.08842541,0.0001411,53.2163,257.8218,83.9526,276.1627,9.3249e-05,1.197e-05,0.0,0 STARLINK-3784,1 52275U 22041Q   23249.44341179  .00001197  00000-0  93249-4 0  9992,2 52275  53.2163 257.8218 0001411  83.9526 276.1627 15.08842541 77403,6917.873,95.437,540.714,538.762,0.0
52275.0,STARLINK-3784,PAYLOAD,2023-09-06 12:13:53,15.08843294,0.0001412,53.2163,257.5246,83.4185,276.6968,9.7088e-05,1.258e-05,0.0,0 STARLINK-3784,1 52275U 22041Q   23249.50965108  .00001258  00000-0  97088-4 0  9996,2 52275  53.2163 257.5246 0001412  83.4185 276.6968 15.08843294 76204,6917.87,95.437,540.712,538.759,0.0
52275.0,STARLINK-3784,PAYLOAD,2023-09-07 12:04:41,15.08838018,0.0001493,53.217,253.0636,82.2485,277.8676,-3.5673e-05,-8.56e-06,0.0,0 STARLINK-3784,1 52275U 22041Q   23250.50325848 -.00000856  00000-0 -35673-4 0  9996,2 52275  53.2170 253.0636 0001493  82.2485 277.8676 15.08838018 76358,6917.886,95.438,540.784,538.719,0.0
52275.0,STARLINK-3784,PAYLOAD,2023-09-08 10:20:05,15.08838659,0.0001439,53.2163,248.9005,93.9776,266.1381,6.5482e-05,7.54e-06,0.0,0 STARLINK-3784,1 52275U 22041Q   23251.43061488  .00000754  00000-0  65482-4 0  9992,2 52275  53.2163 248.9005 0001439  93.9776 266.1381 15.08838659 76495,6917.884,95.438,540.745,538.754,0.0
52275.0,STARLINK-3784,PAYLOAD,2023-09-09 08:35:29,15.08835891,0.0001471,53.2166,244.7374,94.2577,265.8584,9.0435e-05,1.151e-05,0.0,0 STARLINK-3784,1 52275U 22041Q   23252.35797890  .00001151  00000-0  90435-4 0  9995,2 52275  53.2166 244.7374 0001471  94.2577 265.8584 15.08835891 77846,6917.893,95.438,540.776,538.74,0.0
52275.0,STARLINK-3784,PAYLOAD,2023-09-10 06:50:53,15.08839514,0.0001479,53.2168,240.5743,90.2949,269.8212,5.8103e-05,6.37e-06,0.0,0 STARLINK-3784,1 52275U 22041Q   23253.28534101  .00000637  00000-0  58103-4 0  9996,2 52275  53.2168 240.5743 0001479  90.2949 269.8212 15.08839514 76778,6917.882,95.438,540.77,538.724,0.0
52275.0,STARLINK-3784,PAYLOAD,2023-09-11 05:06:17,15.0884143,0.0001404,53.2167,236.412,92.5499,267.5653,6.1005e-05,6.83e-06,0.0,0 STARLINK-3784,1 52275U 22041Q   23254.21270106  .00000683  00000-0  61005-4 0  9998,2 52275  53.2167 236.4120 0001404  92.5499 267.5653 15.08841430 78128,6917.876,95.437,540.712,538.77,0.0
52275.0,STARLINK-3784,PAYLOAD,2023-09-11 11:27:49,15.08845034,0.0001391,53.2165,235.2219,91.4772,268.6379,8.6263e-05,1.085e-05,0.0,0 STARLINK-3784,1 52275U 22041Q   23254.47765772  .00001085  00000-0  86263-4 0  9994,2 52275  53.2165 235.2219 0001391  91.4772 268.6379 15.08845034 76959,6917.865,95.437,540.692,538.768,0.0
52275.0,STARLINK-3784,PAYLOAD,2023-09-12 08:07:50,15.08847356,0.0001371,53.2162,231.3545,96.1487,263.9661,8.9572e-05,1.138e-05,0.0,0 STARLINK-3784,1 52275U 22041Q   23255.33877507  .00001138  00000-0  89572-4 0  9995,2 52275  53.2162 231.3545 0001371  96.1487 263.9661 15.08847356 78298,6917.858,95.437,540.671,538.774,0.0
52275.0,STARLINK-3784,PAYLOAD,2023-09-12 16:04:46,15.08841154,0.0001379,53.2158,229.8679,90.5598,269.5552,4.2167e-05,3.83e-06,0.0,0 STARLINK-3784,1 52275U 22041Q   23255.66998058  .00000383  00000-0  42167-4 0  9996,2 52275  53.2158 229.8679 0001379  90.5598 269.5552 15.08841154 77135,6917.877,95.437,540.696,538.788,0.0
52275.0,STARLINK-3784,PAYLOAD,2023-09-13 01:37:05,15.08841466,0.0001442,53.2168,228.0825,98.2998,261.8158,3.5517e-05,2.77e-06,0.0,0 STARLINK-3784,1 52275U 22041Q   23256.06742058  .00000277  00000-0  35517-4 0  9991,2 52275  53.2168 228.0825 0001442  98.2998 261.8158 15.08841466 78404,6917.876,95.437,540.738,538.743,0.0
52275.0,STARLINK-3784,PAYLOAD,2023-09-13 07:58:37,15.08846231,0.000147,53.2171,226.8932,95.6978,264.4181,7.818e-05,9.57e-06,0.0,0 STARLINK-3784,1 52275U 22041Q   23256.33237653  .00000957  00000-0  78180-4 0  9999,2 52275  53.2171 226.8932 0001470  95.6978 264.4181 15.08846231 77233,6917.861,95.437,540.743,538.709,0.0
52275.0,STARLINK-3784,PAYLOAD,2023-09-14 03:03:15,15.08835651,0.0001468,53.2169,223.3262,106.8032,253.3121,-1.5889e-05,-5.41e-06,0.0,0 STARLINK-3784,1 52275U 22041Q   23257.12726734 -.00000541  00000-0 -15889-4 0  9998,2 52275  53.2169 223.3262 0001468 106.8032 253.3121 15.08835651 78563,6917.894,95.438,540.774,538.743,0.0
52275.0,STARLINK-3784,PAYLOAD,2023-09-14 07:49:25,15.0883836,0.0001406,53.2171,222.4345,100.6068,259.5083,-8.9129e-06,-4.3e-06,0.0,0 STARLINK-3784,1 52275U 22041Q   23257.32598667 -.00000430  00000-0 -89129-5 0  9998,2 52275  53.2171 222.4345 0001406 100.6068 259.5083 15.08838360 77385,6917.885,95.438,540.723,538.778,0.0
52275.0,STARLINK-3784,PAYLOAD,2023-09-15 06:04:48,15.08846894,0.0001371,53.2172,218.2722,97.8691,262.2457,8.1007e-05,1.002e-05,0.0,0 STARLINK-3784,1 52275U 22041Q   23258.25334320  .00001002  00000-0  81007-4 0  9995,2 52275  53.2172 218.2722 0001371  97.8691 262.2457 15.08846894 78735,6917.859,95.437,540.673,538.776,0.0
